start=new Date('2022-08-29T00:00:00.000Z').valueOf();
sats=[{"MEAN_ANOMALY":"287.3877","CENTER_NAME":"EARTH","APOAPSIS":"548.280","TLE_LINE1":"1 46557U 20070AB  22240.27168886  .00000617  00000-0  60325-4 0  9996","FILE":"3549654","PERIAPSIS":"546.112","EPHEMERIS_TYPE":"0","TIME_SYSTEM":"UTC","MEAN_MOTION":"15.06405738","BSTAR":"0.00006032500000","MEAN_ELEMENT_THEORY":"SGP4","RA_OF_ASC_NODE":"190.0514","ELEMENT_SET_NO":"999","TLE_LINE2":"2 46557  53.0534 190.0514 0001565  72.7283 287.3877 15.06405738105372","MEAN_MOTION_DDOT":"0.0000000000000","COUNTRY_CODE":"US","OBJECT_TYPE":"PAYLOAD","MEAN_MOTION_DOT":"0.00000617","SEMIMAJOR_AXIS":"6925.331","ECCENTRICITY":"0.00015650","GP_ID":"211176590","OBJECT_NAME":"STARLINK-1679","CLASSIFICATION_TYPE":"U","ARG_OF_PERICENTER":"72.7283","EPOCH":"2022-08-28T06:31:13.917504","DECAY_DATE":null,"SITE":"AFETR","PERIOD":"95.592","RCS_SIZE":"LARGE","INCLINATION":"53.0534","OBJECT_ID":"2020-070AB","REV_AT_EPOCH":"10537","NORAD_CAT_ID":"46557","REF_FRAME":"TEME","LAUNCH_DATE":"2020-10-06"},{"OBJECT_NAME":"STARLINK-1680","CLASSIFICATION_TYPE":"U","EPOCH":"2022-08-28T03:30:47.003040","ARG_OF_PERICENTER":"72.2047","DECAY_DATE":null,"SITE":"AFETR","RCS_SIZE":"LARGE","PERIOD":"95.592","INCLINATION":"53.0553","OBJECT_ID":"2020-070AC","NORAD_CAT_ID":"46558","REV_AT_EPOCH":"10532","REF_FRAME":"TEME","LAUNCH_DATE":"2020-10-06","MEAN_ANOMALY":"287.9106","CENTER_NAME":"EARTH","APOAPSIS":"548.253","TLE_LINE1":"1 46558U 20070AC  22240.14637735  .00002637  00000-0  19586-3 0  9993","PERIAPSIS":"546.177","FILE":"3549654","MEAN_MOTION":"15.06399578","EPHEMERIS_TYPE":"0","TIME_SYSTEM":"UTC","RA_OF_ASC_NODE":"190.6018","BSTAR":"0.00019586000000","MEAN_ELEMENT_THEORY":"SGP4","ELEMENT_SET_NO":"999","TLE_LINE2":"2 46558  53.0553 190.6018 0001499  72.2047 287.9106 15.06399578105328","COUNTRY_CODE":"US","OBJECT_TYPE":"PAYLOAD","MEAN_MOTION_DDOT":"0.0000000000000","SEMIMAJOR_AXIS":"6925.350","MEAN_MOTION_DOT":"0.00002637","ECCENTRICITY":"0.00014990","GP_ID":"211175338"},{"CLASSIFICATION_TYPE":"U","OBJECT_NAME":"STARLINK-1681","PERIOD":"95.593","RCS_SIZE":"LARGE","SITE":"AFETR","DECAY_DATE":null,"ARG_OF_PERICENTER":"69.1330","EPOCH":"2022-08-28T06:23:54.216672","REV_AT_EPOCH":"10557","NORAD_CAT_ID":"46559","OBJECT_ID":"2020-070AD","INCLINATION":"53.0552","LAUNCH_DATE":"2020-10-06","REF_FRAME":"TEME","APOAPSIS":"548.344","TLE_LINE1":"1 46559U 20070AD  22240.26659973  .00000734  00000-0  68179-4 0  9994","CENTER_NAME":"EARTH","MEAN_ANOMALY":"290.9831","BSTAR":"0.00006817900000","MEAN_ELEMENT_THEORY":"SGP4","RA_OF_ASC_NODE":"175.0602","EPHEMERIS_TYPE":"0","TIME_SYSTEM":"UTC","MEAN_MOTION":"15.06393715","FILE":"3549654","PERIAPSIS":"546.121","MEAN_MOTION_DDOT":"0.0000000000000","OBJECT_TYPE":"PAYLOAD","COUNTRY_CODE":"US","TLE_LINE2":"2 46559  53.0552 175.0602 0001605  69.1330 290.9831 15.06393715105576","ELEMENT_SET_NO":"999","GP_ID":"211176088","ECCENTRICITY":"0.00016050","MEAN_MOTION_DOT":"0.00000734","SEMIMAJOR_AXIS":"6925.368"},{"REF_FRAME":"TEME","LAUNCH_DATE":"2020-10-06","INCLINATION":"53.0558","OBJECT_ID":"2020-070AE","NORAD_CAT_ID":"46560","REV_AT_EPOCH":"10537","EPOCH":"2022-08-28T07:03:05.466528","ARG_OF_PERICENTER":"64.8225","DECAY_DATE":null,"SITE":"AFETR","RCS_SIZE":"LARGE","PERIOD":"95.592","OBJECT_NAME":"STARLINK-1706","CLASSIFICATION_TYPE":"U","SEMIMAJOR_AXIS":"6925.351","MEAN_MOTION_DOT":"0.00001039","ECCENTRICITY":"0.00019030","GP_ID":"211176340","ELEMENT_SET_NO":"999","TLE_LINE2":"2 46560  53.0558 189.9415 0001903  64.8225 295.2961 15.06399267105374","COUNTRY_CODE":"US","OBJECT_TYPE":"PAYLOAD","MEAN_MOTION_DDOT":"0.0000000000000","FILE":"3549654","PERIAPSIS":"545.898","MEAN_MOTION":"15.06399267","EPHEMERIS_TYPE":"0","TIME_SYSTEM":"UTC","RA_OF_ASC_NODE":"189.9415","MEAN_ELEMENT_THEORY":"SGP4","BSTAR":"0.00008866700000","MEAN_ANOMALY":"295.2961","CENTER_NAME":"EARTH","APOAPSIS":"548.534","TLE_LINE1":"1 46560U 20070AE  22240.29381327  .00001039  00000-0  88667-4 0  9997"},{"ELEMENT_SET_NO":"999","TLE_LINE2":"2 46561  53.0533 189.8841 0001784  68.8366 291.2813 15.06399648105383","OBJECT_TYPE":"PAYLOAD","COUNTRY_CODE":"US","MEAN_MOTION_DDOT":"0.0000000000000","SEMIMAJOR_AXIS":"6925.350","MEAN_MOTION_DOT":"0.00000716","ECCENTRICITY":"0.00017840","GP_ID":"211188352","MEAN_ANOMALY":"291.2813","CENTER_NAME":"EARTH","TLE_LINE1":"1 46561U 20070AF  22240.31130028  .00000716  00000-0  66949-4 0  9991","APOAPSIS":"548.450","PERIAPSIS":"545.979","FILE":"3549916","MEAN_MOTION":"15.06399648","EPHEMERIS_TYPE":"0","TIME_SYSTEM":"UTC","RA_OF_ASC_NODE":"189.8841","BSTAR":"0.00006694900000","MEAN_ELEMENT_THEORY":"SGP4","INCLINATION":"53.0533","OBJECT_ID":"2020-070AF","NORAD_CAT_ID":"46561","REV_AT_EPOCH":"10538","REF_FRAME":"TEME","LAUNCH_DATE":"2020-10-06","OBJECT_NAME":"STARLINK-1709","CLASSIFICATION_TYPE":"U","EPOCH":"2022-08-28T07:28:16.344192","ARG_OF_PERICENTER":"68.8366","DECAY_DATE":null,"SITE":"AFETR","RCS_SIZE":"LARGE","PERIOD":"95.592"},{"BSTAR":"0.00006857200000","MEAN_ELEMENT_THEORY":"SGP4","RA_OF_ASC_NODE":"184.8517","TIME_SYSTEM":"UTC","EPHEMERIS_TYPE":"0","MEAN_MOTION":"15.06398653","FILE":"3549654","PERIAPSIS":"546.092","APOAPSIS":"548.343","TLE_LINE1":"1 46562U 20070AG  22240.30991044  .00000740  00000-0  68572-4 0  9995","CENTER_NAME":"EARTH","MEAN_ANOMALY":"282.8225","GP_ID":"211175838","ECCENTRICITY":"0.00016250","MEAN_MOTION_DOT":"0.00000740","SEMIMAJOR_AXIS":"6925.353","MEAN_MOTION_DDOT":"0.0000000000000","COUNTRY_CODE":"US","OBJECT_TYPE":"PAYLOAD","TLE_LINE2":"2 46562  53.0531 184.8517 0001625  77.2946 282.8225 15.06398653105444","ELEMENT_SET_NO":"999","PERIOD":"95.592","RCS_SIZE":"LARGE","SITE":"AFETR","DECAY_DATE":null,"ARG_OF_PERICENTER":"77.2946","EPOCH":"2022-08-28T07:26:16.262016","CLASSIFICATION_TYPE":"U","OBJECT_NAME":"STARLINK-1714","LAUNCH_DATE":"2020-10-06","REF_FRAME":"TEME","REV_AT_EPOCH":"10544","NORAD_CAT_ID":"46562","OBJECT_ID":"2020-070AG","INCLINATION":"53.0531"},{"RCS_SIZE":"LARGE","PERIOD":"95.592","SITE":"AFETR","DECAY_DATE":null,"EPOCH":"2022-08-28T13:23:15.216000","ARG_OF_PERICENTER":"62.9142","CLASSIFICATION_TYPE":"U","OBJECT_NAME":"STARLINK-1730","LAUNCH_DATE":"2020-10-06","REF_FRAME":"TEME","NORAD_CAT_ID":"46563","REV_AT_EPOCH":"10548","OBJECT_ID":"2020-070AH","INCLINATION":"53.0549","RA_OF_ASC_NODE":"183.7717","BSTAR":"0.00005915300000","MEAN_ELEMENT_THEORY":"SGP4","MEAN_MOTION":"15.06397390","TIME_SYSTEM":"UTC","EPHEMERIS_TYPE":"0","PERIAPSIS":"545.953","FILE":"3550014","APOAPSIS":"548.490","TLE_LINE1":"1 46563U 20070AH  22240.55781500  .00000599  00000-0  59153-4 0  9994","CENTER_NAME":"EARTH","MEAN_ANOMALY":"297.2034","GP_ID":"211209048","ECCENTRICITY":"0.00018320","SEMIMAJOR_AXIS":"6925.357","MEAN_MOTION_DOT":"0.00000599","OBJECT_TYPE":"PAYLOAD","COUNTRY_CODE":"US","MEAN_MOTION_DDOT":"0.0000000000000","TLE_LINE2":"2 46563  53.0549 183.7717 0001832  62.9142 297.2034 15.06397390105482","ELEMENT_SET_NO":"999"},{"TLE_LINE2":"2 46564  53.0540 184.7246 0002094  65.9039 294.2169 15.06403416105451","MEAN_MOTION_DDOT":"0.0000000000000","COUNTRY_CODE":"US","OBJECT_TYPE":"PAYLOAD","ELEMENT_SET_NO":"999","GP_ID":"211176840","MEAN_MOTION_DOT":"0.00000241","SEMIMAJOR_AXIS":"6925.338","ECCENTRICITY":"0.00020940","CENTER_NAME":"EARTH","APOAPSIS":"548.653","TLE_LINE1":"1 46564U 20070AJ  22240.34034348  .00000241  00000-0  35085-4 0  9995","MEAN_ANOMALY":"294.2169","EPHEMERIS_TYPE":"0","TIME_SYSTEM":"UTC","MEAN_MOTION":"15.06403416","BSTAR":"0.00003508500000","MEAN_ELEMENT_THEORY":"SGP4","RA_OF_ASC_NODE":"184.7246","FILE":"3549654","PERIAPSIS":"545.753","REV_AT_EPOCH":"10545","NORAD_CAT_ID":"46564","INCLINATION":"53.0540","OBJECT_ID":"2020-070AJ","LAUNCH_DATE":"2020-10-06","REF_FRAME":"TEME","OBJECT_NAME":"STARLINK-1733","CLASSIFICATION_TYPE":"U","SITE":"AFETR","PERIOD":"95.592","RCS_SIZE":"LARGE","ARG_OF_PERICENTER":"65.9039","EPOCH":"2022-08-28T08:10:05.676672","DECAY_DATE":null},{"ECCENTRICITY":"0.00019500","SEMIMAJOR_AXIS":"6925.323","MEAN_MOTION_DOT":"0.00000317","GP_ID":"211176591","ELEMENT_SET_NO":"999","OBJECT_TYPE":"PAYLOAD","COUNTRY_CODE":"US","MEAN_MOTION_DDOT":"0.0000000000000","TLE_LINE2":"2 46565  53.0544 185.1380 0001950  68.4482 291.6714 15.06408220105433","FILE":"3549654","PERIAPSIS":"545.838","RA_OF_ASC_NODE":"185.1380","BSTAR":"0.00004017200000","MEAN_ELEMENT_THEORY":"SGP4","MEAN_MOTION":"15.06408220","EPHEMERIS_TYPE":"0","TIME_SYSTEM":"UTC","MEAN_ANOMALY":"291.6714","APOAPSIS":"548.539","TLE_LINE1":"1 46565U 20070AK  22240.25187373  .00000317  00000-0  40172-4 0  9990","CENTER_NAME":"EARTH","REF_FRAME":"TEME","LAUNCH_DATE":"2020-10-06","OBJECT_ID":"2020-070AK","INCLINATION":"53.0544","NORAD_CAT_ID":"46565","REV_AT_EPOCH":"10543","DECAY_DATE":null,"EPOCH":"2022-08-28T06:02:41.890272","ARG_OF_PERICENTER":"68.4482","RCS_SIZE":"LARGE","PERIOD":"95.592","SITE":"AFETR","CLASSIFICATION_TYPE":"U","OBJECT_NAME":"STARLINK-1735"},{"ELEMENT_SET_NO":"999","TLE_LINE2":"2 46566  53.0554 183.7027 0001834  67.9150 292.2033 15.06417225105485","MEAN_MOTION_DDOT":"0.0000000000000","OBJECT_TYPE":"PAYLOAD","COUNTRY_CODE":"US","MEAN_MOTION_DOT":"0.00000781","SEMIMAJOR_AXIS":"6925.296","ECCENTRICITY":"0.00018340","GP_ID":"211210795","MEAN_ANOMALY":"292.2033","CENTER_NAME":"EARTH","TLE_LINE1":"1 46566U 20070AL  22240.56886791  .00000781  00000-0  71328-4 0  9997","APOAPSIS":"548.431","FILE":"3550014","PERIAPSIS":"545.891","EPHEMERIS_TYPE":"0","TIME_SYSTEM":"UTC","MEAN_MOTION":"15.06417225","MEAN_ELEMENT_THEORY":"SGP4","BSTAR":"0.00007132800000","RA_OF_ASC_NODE":"183.7027","INCLINATION":"53.0554","OBJECT_ID":"2020-070AL","REV_AT_EPOCH":"10548","NORAD_CAT_ID":"46566","REF_FRAME":"TEME","LAUNCH_DATE":"2020-10-06","OBJECT_NAME":"STARLINK-1740","CLASSIFICATION_TYPE":"U","ARG_OF_PERICENTER":"67.9150","EPOCH":"2022-08-28T13:39:10.187424","DECAY_DATE":null,"SITE":"AFETR","PERIOD":"95.591","RCS_SIZE":"LARGE"}];
